GLOBALSTAR M067         
1 32263U 07048A   25346.15835530 -.00000073  00000+0  18085-3 0  9990
2 32263  51.9719 235.1694 0001821  32.9760 132.5337 12.40682860831574
GLOBALSTAR M070         
1 32264U 07048B   25346.31399617 -.00000073  00000+0  17092-3 0  9997
2 32264  51.9765 305.8519 0000351  68.3308  96.5987 12.62327234836160
GLOBALSTAR M066         
1 32265U 07048C   25346.17358391 -.00000082  00000+0  10890-3 0  9995
2 32265  51.9581 234.7751 0005501  20.0832 146.4963 12.30382945837204
GLOBALSTAR M068         
1 32266U 07048D   25345.67110260 -.00000062  00000+0  23142-3 0  9993
2 32266  51.9870 121.2190 0001797 138.7051 234.8147 12.62835020839981
GLOBALSTAR M079         
1 37188U 10054A   25346.25113847 -.00000082  00000+0  12235-3 0  9994
2 37188  52.0057 317.7314 0000476  16.3854 356.6460 12.62269130698946
GLOBALSTAR M074         
1 37189U 10054B   25346.19837012 -.00000086  00000+0  10062-3 0  9995
2 37189  52.0038 317.1869 0000572  53.2108 319.6277 12.62264071699545
GLOBALSTAR M076         
1 37190U 10054C   25346.24502019 -.00000082  00000+0  12077-3 0  9993
2 37190  52.0047 317.2333 0000642  37.1928  66.5728 12.62268013699261
GLOBALSTAR M077         
1 37191U 10054D   25346.31950022 -.00000070  00000+0  15466-3 0  9995
2 37191  51.9988 293.9669 0000978  17.6155 150.5368 11.68176779699304
